{"fetched_at":"2026-07-11T09:23:57.375Z","source":"https://celestrak.org/NORAD/elements/gp.php?GROUP=oneweb&FORMAT=JSON","constellation":"oneweb","records":[{"OBJECT_NAME":"ONEWEB-0509","OBJECT_ID":"2022-138Q","EPOCH":"2026-07-09T07:20:59.619840","CLASSIFICATION_TYPE":"U","MEAN_MOTION":13.19724486,"ECCENTRICITY":0.00019383,"INCLINATION":87.9193,"RA_OF_ASC_NODE":300.5622,"ARG_OF_PERICENTER":101.9204,"MEAN_ANOMALY":258.2146,"EPHEMERIS_TYPE":0,"NORAD_CAT_ID":54127,"ELEMENT_SET_NO":999,"REV_AT_EPOCH":17972,"BSTAR":0.000071337456,"MEAN_MOTION_DOT":4.2e-7,"MEAN_MOTION_DDOT":0},{"OBJECT_NAME":"ONEWEB-0510","OBJECT_ID":"2022-138R","EPOCH":"2026-07-11T05:20:37.995936","CLASSIFICATION_TYPE":"U","MEAN_MOTION":13.2076986,"ECCENTRICITY":0.0002137,"INCLINATION":87.9185,"RA_OF_ASC_NODE":269.6467,"ARG_OF_PERICENTER":86.2155,"MEAN_ANOMALY":273.9222,"EPHEMERIS_TYPE":0,"NORAD_CAT_ID":54128,"ELEMENT_SET_NO":999,"REV_AT_EPOCH":18245,"BSTAR":-0.00021261,"MEAN_MOTION_DOT":-7.3e-7,"MEAN_MOTION_DDOT":0},{"OBJECT_NAME":"ONEWEB-0511","OBJECT_ID":"2022-138S","EPOCH":"2026-07-10T06:55:43.260960","CLASSIFICATION_TYPE":"U","MEAN_MOTION":13.1972705,"ECCENTRICITY":0.0001631,"INCLINATION":87.9192,"RA_OF_ASC_NODE":300.3684,"ARG_OF_PERICENTER":100.6739,"MEAN_ANOMALY":259.4577,"EPHEMERIS_TYPE":0,"NORAD_CAT_ID":54129,"ELEMENT_SET_NO":999,"REV_AT_EPOCH":17988,"BSTAR":-0.0001313318,"MEAN_MOTION_DOT":-4e-7,"MEAN_MOTION_DDOT":0},{"OBJECT_NAME":"ONEWEB-0512","OBJECT_ID":"2022-138T","EPOCH":"2026-07-10T06:44:21.947712","CLASSIFICATION_TYPE":"U","MEAN_MOTION":13.19726618,"ECCENTRICITY":0.00018055,"INCLINATION":87.9186,"RA_OF_ASC_NODE":300.3727,"ARG_OF_PERICENTER":112.0647,"MEAN_ANOMALY":248.0678,"EPHEMERIS_TYPE":0,"NORAD_CAT_ID":54130,"ELEMENT_SET_NO":999,"REV_AT_EPOCH":17985,"BSTAR":0.00002385328,"MEAN_MOTION_DOT":2.2e-7,"MEAN_MOTION_DDOT":0},{"OBJECT_NAME":"ONEWEB-0513","OBJECT_ID":"2022-138U","EPOCH":"2026-07-10T06:38:46.745952","CLASSIFICATION_TYPE":"U","MEAN_MOTION":13.20269338,"ECCENTRICITY":0.00013694,"INCLINATION":87.9191,"RA_OF_ASC_NODE":300.3151,"ARG_OF_PERICENTER":125.292,"MEAN_ANOMALY":234.8342,"EPHEMERIS_TYPE":0,"NORAD_CAT_ID":54131,"ELEMENT_SET_NO":999,"REV_AT_EPOCH":17976,"BSTAR":-0.00011035233,"MEAN_MOTION_DOT":-3.2e-7,"MEAN_MOTION_DDOT":0},{"OBJECT_NAME":"ONEWEB-0514","OBJECT_ID":"2022-138V","EPOCH":"2026-07-10T07:07:07.219776","CLASSIFICATION_TYPE":"U","MEAN_MOTION":13.19725776,"ECCENTRICITY":0.00018808,"INCLINATION":87.9193,"RA_OF_ASC_NODE":300.3667,"ARG_OF_PERICENTER":94.1271,"MEAN_ANOMALY":266.0077,"EPHEMERIS_TYPE":0,"NORAD_CAT_ID":54132,"ELEMENT_SET_NO":999,"REV_AT_EPOCH":17987,"BSTAR":-0.000047879962,"MEAN_MOTION_DOT":-6e-8,"MEAN_MOTION_DDOT":0},{"OBJECT_NAME":"ONEWEB-0515","OBJECT_ID":"2022-138W","EPOCH":"2026-07-10T05:23:06.240192","CLASSIFICATION_TYPE":"U","MEAN_MOTION":13.2077153,"ECCENTRICITY":0.00027411,"INCLINATION":87.9176,"RA_OF_ASC_NODE":269.8409,"ARG_OF_PERICENTER":89.8693,"MEAN_ANOMALY":270.2754,"EPHEMERIS_TYPE":0,"NORAD_CAT_ID":54133,"ELEMENT_SET_NO":999,"REV_AT_EPOCH":18234,"BSTAR":0.000168868,"MEAN_MOTION_DOT":8.2e-7,"MEAN_MOTION_DDOT":0},{"OBJECT_NAME":"ONEWEB-0516","OBJECT_ID":"2022-138X","EPOCH":"2026-07-09T06:51:25.105536","CLASSIFICATION_TYPE":"U","MEAN_MOTION":13.19726695,"ECCENTRICITY":0.00020775,"INCLINATION":87.9186,"RA_OF_ASC_NODE":300.5707,"ARG_OF_PERICENTER":102.5978,"MEAN_ANOMALY":257.5387,"EPHEMERIS_TYPE":0,"NORAD_CAT_ID":54134,"ELEMENT_SET_NO":999,"REV_AT_EPOCH":17974,"BSTAR":-0.000014158704,"MEAN_MOTION_DOT":7e-8,"MEAN_MOTION_DDOT":0},{"OBJECT_NAME":"ONEWEB-0517","OBJECT_ID":"2022-138Y","EPOCH":"2026-07-11T05:40:27.267744","CLASSIFICATION_TYPE":"U","MEAN_MOTION":13.19726356,"ECCENTRICITY":0.0001674,"INCLINATION":87.9192,"RA_OF_ASC_NODE":300.1772,"ARG_OF_PERICENTER":92.9647,"MEAN_ANOMALY":267.1677,"EPHEMERIS_TYPE":0,"NORAD_CAT_ID":54135,"ELEMENT_SET_NO":999,"REV_AT_EPOCH":18000,"BSTAR":0.00035208,"MEAN_MOTION_DOT":0.00000154,"MEAN_MOTION_DDOT":0},{"OBJECT_NAME":"ONEWEB-0518","OBJECT_ID":"2022-138Z","EPOCH":"2026-07-10T06:28:26.552928","CLASSIFICATION_TYPE":"U","MEAN_MOTION":13.19722995,"ECCENTRICITY":0.00021314,"INCLINATION":87.9191,"RA_OF_ASC_NODE":300.3756,"ARG_OF_PERICENTER":101.2395,"MEAN_ANOMALY":258.8977,"EPHEMERIS_TYPE":0,"NORAD_CAT_ID":54136,"ELEMENT_SET_NO":999,"REV_AT_EPOCH":17987,"BSTAR":0.000075596923,"MEAN_MOTION_DOT":4.3e-7,"MEAN_MOTION_DDOT":0},{"OBJECT_NAME":"ONEWEB-0519","OBJECT_ID":"2022-138AA","EPOCH":"2026-07-10T07:04:49.201824","CLASSIFICATION_TYPE":"U","MEAN_MOTION":13.19727621,"ECCENTRICITY":0.00017921,"INCLINATION":87.9191,"RA_OF_ASC_NODE":300.366,"ARG_OF_PERICENTER":96.1878,"MEAN_ANOMALY":263.9459,"EPHEMERIS_TYPE":0,"NORAD_CAT_ID":54137,"ELEMENT_SET_NO":999,"REV_AT_EPOCH":17988,"BSTAR":-0.000078006789,"MEAN_MOTION_DOT":-1.8e-7,"MEAN_MOTION_DDOT":0},{"OBJECT_NAME":"ONEWEB-0520","OBJECT_ID":"2022-138AB","EPOCH":"2026-07-10T06:05:42.941472","CLASSIFICATION_TYPE":"U","MEAN_MOTION":13.19726548,"ECCENTRICITY":0.00020014,"INCLINATION":87.9192,"RA_OF_ASC_NODE":300.3743,"ARG_OF_PERICENTER":109.3056,"MEAN_ANOMALY":250.8293,"EPHEMERIS_TYPE":0,"NORAD_CAT_ID":54138,"ELEMENT_SET_NO":999,"REV_AT_EPOCH":17986,"BSTAR":0.00012909073,"MEAN_MOTION_DOT":6.5e-7,"MEAN_MOTION_DDOT":0},{"OBJECT_NAME":"ONEWEB-0521","OBJECT_ID":"2022-138AC","EPOCH":"2026-07-10T06:53:27.575808","CLASSIFICATION_TYPE":"U","MEAN_MOTION":13.19726756,"ECCENTRICITY":0.00018138,"INCLINATION":87.9194,"RA_OF_ASC_NODE":300.3562,"ARG_OF_PERICENTER":95.473,"MEAN_ANOMALY":264.6609,"EPHEMERIS_TYPE":0,"NORAD_CAT_ID":54139,"ELEMENT_SET_NO":999,"REV_AT_EPOCH":17981,"BSTAR":-0.000040477922,"MEAN_MOTION_DOT":-3e-8,"MEAN_MOTION_DDOT":0},{"OBJECT_NAME":"ONEWEB-0522","OBJECT_ID":"2022-138AD","EPOCH":"2026-07-10T06:23:54.840480","CLASSIFICATION_TYPE":"U","MEAN_MOTION":13.19725984,"ECCENTRICITY":0.0001933,"INCLINATION":87.9194,"RA_OF_ASC_NODE":300.3631,"ARG_OF_PERICENTER":106.1937,"MEAN_ANOMALY":253.9409,"EPHEMERIS_TYPE":0,"NORAD_CAT_ID":54140,"ELEMENT_SET_NO":999,"REV_AT_EPOCH":17985,"BSTAR":0.000075182227,"MEAN_MOTION_DOT":4.3e-7,"MEAN_MOTION_DDOT":0},{"OBJECT_NAME":"ONEWEB-0523","OBJECT_ID":"2022-138AE","EPOCH":"2026-07-11T04:41:51.298368","CLASSIFICATION_TYPE":"U","MEAN_MOTION":13.20772303,"ECCENTRICITY":0.0002463,"INCLINATION":87.919,"RA_OF_ASC_NODE":269.6571,"ARG_OF_PERICENTER":80.5047,"MEAN_ANOMALY":279.6364,"EPHEMERIS_TYPE":0,"NORAD_CAT_ID":54141,"ELEMENT_SET_NO":999,"REV_AT_EPOCH":18247,"BSTAR":-0.00012124,"MEAN_MOTION_DOT":-3.6e-7,"MEAN_MOTION_DDOT":0},{"OBJECT_NAME":"ONEWEB-0524","OBJECT_ID":"2022-138AF","EPOCH":"2026-07-11T00:49:08.222016","CLASSIFICATION_TYPE":"U","MEAN_MOTION":13.20771926,"ECCENTRICITY":0.0002938,"INCLINATION":87.9188,"RA_OF_ASC_NODE":269.6864,"ARG_OF_PERICENTER":95.7785,"MEAN_ANOMALY":264.3683,"EPHEMERIS_TYPE":0,"NORAD_CAT_ID":54142,"ELEMENT_SET_NO":999,"REV_AT_EPOCH":18245,"BSTAR":0.000004814,"MEAN_MOTION_DOT":1.5e-7,"MEAN_MOTION_DDOT":0},{"OBJECT_NAME":"ONEWEB-0525","OBJECT_ID":"2022-138AG","EPOCH":"2026-07-10T06:51:10.686240","CLASSIFICATION_TYPE":"U","MEAN_MOTION":13.19726557,"ECCENTRICITY":0.00021197,"INCLINATION":87.9185,"RA_OF_ASC_NODE":300.3657,"ARG_OF_PERICENTER":112.4398,"MEAN_ANOMALY":247.6959,"EPHEMERIS_TYPE":0,"NORAD_CAT_ID":54143,"ELEMENT_SET_NO":999,"REV_AT_EPOCH":17987,"BSTAR":0.000030477371,"MEAN_MOTION_DOT":2.5e-7,"MEAN_MOTION_DDOT":0},{"OBJECT_NAME":"ONEWEB-0526","OBJECT_ID":"2022-138AH","EPOCH":"2026-07-11T05:29:03.632064","CLASSIFICATION_TYPE":"U","MEAN_MOTION":13.19723898,"ECCENTRICITY":0.000211,"INCLINATION":87.9193,"RA_OF_ASC_NODE":300.1794,"ARG_OF_PERICENTER":103.9521,"MEAN_ANOMALY":256.1847,"EPHEMERIS_TYPE":0,"NORAD_CAT_ID":54144,"ELEMENT_SET_NO":999,"REV_AT_EPOCH":17997,"BSTAR":0.000047842,"MEAN_MOTION_DOT":3.2e-7,"MEAN_MOTION_DDOT":0},{"OBJECT_NAME":"ONEWEB-0529","OBJECT_ID":"2022-138AJ","EPOCH":"2026-07-11T05:33:38.024640","CLASSIFICATION_TYPE":"U","MEAN_MOTION":13.1972608,"ECCENTRICITY":0.0002011,"INCLINATION":87.9186,"RA_OF_ASC_NODE":300.1861,"ARG_OF_PERICENTER":107.8092,"MEAN_ANOMALY":252.326,"EPHEMERIS_TYPE":0,"NORAD_CAT_ID":54145,"ELEMENT_SET_NO":999,"REV_AT_EPOCH":17999,"BSTAR":0.000069249,"MEAN_MOTION_DOT":4.1e-7,"MEAN_MOTION_DDOT":0},{"OBJECT_NAME":"ONEWEB-0531","OBJECT_ID":"2022-138AK","EPOCH":"2026-07-10T04:29:44.859264","CLASSIFICATION_TYPE":"U","MEAN_MOTION":13.20773225,"ECCENTRICITY":0.00028304,"INCLINATION":87.9172,"RA_OF_ASC_NODE":269.853,"ARG_OF_PERICENTER":87.2823,"MEAN_ANOMALY":272.8634,"EPHEMERIS_TYPE":0,"NORAD_CAT_ID":54146,"ELEMENT_SET_NO":999,"REV_AT_EPOCH":18234,"BSTAR":0.00011004115,"MEAN_MOTION_DOT":5.8e-7,"MEAN_MOTION_DDOT":0},{"OBJECT_NAME":"ONEWEB-0535","OBJECT_ID":"2022-138AL","EPOCH":"2026-07-10T06:42:05.146272","CLASSIFICATION_TYPE":"U","MEAN_MOTION":13.19726179,"ECCENTRICITY":0.00019849,"INCLINATION":87.9195,"RA_OF_ASC_NODE":300.3616,"ARG_OF_PERICENTER":91.6706,"MEAN_ANOMALY":268.4654,"EPHEMERIS_TYPE":0,"NORAD_CAT_ID":54147,"ELEMENT_SET_NO":999,"REV_AT_EPOCH":17988,"BSTAR":-0.000016448769,"MEAN_MOTION_DOT":6e-8,"MEAN_MOTION_DDOT":0},{"OBJECT_NAME":"ONEWEB-0536","OBJECT_ID":"2022-138AM","EPOCH":"2026-07-11T03:48:31.292064","CLASSIFICATION_TYPE":"U","MEAN_MOTION":13.20772897,"ECCENTRICITY":0.0002914,"INCLINATION":87.9172,"RA_OF_ASC_NODE":269.6789,"ARG_OF_PERICENTER":84.6068,"MEAN_ANOMALY":275.5398,"EPHEMERIS_TYPE":0,"NORAD_CAT_ID":54148,"ELEMENT_SET_NO":999,"REV_AT_EPOCH":18246,"BSTAR":0.000095316,"MEAN_MOTION_DOT":5.2e-7,"MEAN_MOTION_DDOT":0},{"OBJECT_NAME":"ONEWEB-0527","OBJECT_ID":"2022-166A","EPOCH":"2026-07-11T02:19:15.765600","CLASSIFICATION_TYPE":"U","MEAN_MOTION":13.21827029,"ECCENTRICITY":0.0002126,"INCLINATION":87.9235,"RA_OF_ASC_NODE":239.239,"ARG_OF_PERICENTER":97.4609,"MEAN_ANOMALY":262.6767,"EPHEMERIS_TYPE":0,"NORAD_CAT_ID":54642,"ELEMENT_SET_NO":999,"REV_AT_EPOCH":17469,"BSTAR":0.000035865,"MEAN_MOTION_DOT":2.8e-7,"MEAN_MOTION_DDOT":0}]}
